CCSDS_OEM_VERS = 2.0  
CREATION_DATE  = 2026-05-08T16:26:24
ORIGINATOR     = ESOC/OPS-GFA                            
 
 



META_START
OBJECT_NAME          = LISA                                    
OBJECT_ID            = -1000                                   
CENTER_NAME          = SUN                     
REF_FRAME            = EME2000 
TIME_SYSTEM          = TCB
START_TIME           = 2036-12-23T00:00:30.346418            
STOP_TIME            = 2047-09-09T13:05:22.587857            
INTERPOLATION        = HERMITE                                 
INTERPOLATION_DEGREE = 7                                       
META_STOP

2042-06-14T00:59:54.095491    -7.29977312146871239e+07   -1.20642106633140534e+08   -5.15588010020775646e+07    2.60038130859555849e+01   -1.30655746297769504e+01   -5.89185286923210771e+00    2.86258947109890290e-06    4.73074162471371302e-06    2.02177636843815246e-06
2042-06-14T21:13:19.813061    -7.10969834440251589e+07   -1.21580783699797168e+08   -5.19823881337346658e+07    2.62095342997159300e+01   -1.27197729630229919e+01   -5.74403564205806472e+00    2.78854696259332790e-06    4.76839719389620346e-06    2.03874882139462505e-06
2042-06-15T17:26:45.530631    -6.91814547512159050e+07   -1.22494185400102004e+08   -5.23951686728560030e+07    2.64098428008728021e+01   -1.23712650351436366e+01   -5.59499779487490301e+00    2.71390269349596309e-06    4.80508224036023031e-06    2.05530663266883538e-06
2042-06-16T13:40:11.248200    -6.72515407901904285e+07   -1.23382117271393389e+08   -5.27970548488697186e+07    2.66046953126478805e+01   -1.20201218054735310e+01   -5.44476965058176532e+00    2.63867137344562833e-06    4.84078855275463380e-06    2.07144611389265252e-06
2042-06-17T09:53:36.965769    -6.53076403490899652e+07   -1.24244390154398128e+08   -5.31879611584008634e+07    2.67940496328467788e+01   -1.16664148264998442e+01   -5.29338179862032554e+00    2.56286780916648313e-06    4.87550804524375365e-06    2.08716363010959388e-06
2042-06-18T06:13:33.527550    -6.33396109203538671e+07   -1.25085240218753621e+08   -5.35698134257788584e+07    2.69788364074563987e+01   -1.13082974404170624e+01   -5.14004333659176904e+00    2.48609582007314033e-06    4.90941154564151206e-06    2.10253672549249239e-06
2042-06-19T02:33:30.089330    -6.13582618940218240e+07   -1.25899787416571841e+08   -5.39404010552440435e+07    2.71579835952554589e+01   -1.09477354626825782e+01   -4.98559546216659477e+00    2.40877608245530433e-06    4.94230204942924603e-06    2.11747630133999729e-06
2042-06-19T22:53:26.651111    -5.93640075164684430e+07   -1.26687855562489405e+08   -5.42996440190052167e+07    2.73314516718677218e+01   -1.05848033153521079e+01   -4.83007003135521540e+00    2.33092416003888090e-06    4.97417208742515614e-06    2.13197898264575195e-06
2042-06-20T19:13:23.212892    -5.73572648891672418e+07   -1.27449273878944814e+08   -5.46474646042158157e+07    2.74992022562507081e+01   -1.02195759619255941e+01   -4.67349914496461949e+00    2.25255573014988033e-06    5.00501433842829423e-06    2.14604145734001788e-06
2042-06-21T15:33:19.774672    -5.53384538824075684e+07   -1.28183877086959809e+08   -5.49837874530521184e+07    2.76611981191919938e+01   -9.85212889572677852e+00   -4.51591514365127988e+00    2.17368658835557944e-06    5.03482165006482516e-06    2.15966048528729914e-06
2042-06-22T11:53:16.336453    -5.33079970493802801e+07   -1.28891505471421197e+08   -5.53085395917528942e+07    2.78174031920879266e+01   -9.48253812689580400e+00   -4.35735060237497773e+00    2.09433265159717133e-06    5.06358705592599193e-06    2.17283290569506212e-06
2042-06-23T08:13:12.898234    -5.12663195403911397e+07   -1.29572004926223651e+08   -5.56216504509424418e+07    2.79677825758964573e+01   -9.11088016826288793e+00   -4.19783832436839432e+00    2.01450995981544091e-06    5.09130378900468065e-06    2.18555564293659748e-06
2042-06-24T04:33:09.460015    -4.92138490169778392e+07   -1.30225226984624639e+08   -5.59230518795547709e+07    2.81123025501536645e+01   -8.73723202037427882e+00   -4.03741133473867286e+00    1.93423467606454566e-06    5.11796529141975686e-06    2.19782571078327575e-06
2042-06-25T00:53:06.021795    -4.71510155657070279e+07   -1.30851028840162307e+08   -5.62126781546763703e+07    2.82509305819435852e+01   -8.36167115594165899e+00   -3.87610287381713992e+00    1.85352308512303525e-06    5.14356522044774142e-06    2.20964021505472623e-06
2042-06-25T21:13:02.583576    -4.50782516114274114e+07   -1.31449273363487124e+08   -5.64904659896254092e+07    2.83836353347108172e+01   -7.98427550398627606e+00   -3.71394639037340024e+00    1.77239159058533275e-06    5.16809745082777944e-06    2.22099635467225332e-06
2042-06-26T17:32:59.145357    -4.29959918297548592e+07   -1.32019829120458573e+08   -5.67563545425848216e+07    2.85103866768056093e+01   -7.60512343394888646e+00   -3.55097553480997252e+00    1.69085671045896530e-06    5.19155607338877434e-06    2.23189142113639928e-06
2042-06-27T13:52:55.707138    -4.09046730585661530e+07   -1.32562570396857321e+08   -5.70102854281069413e+07    2.86311556896508783e+01   -7.22429374003681879e+00   -3.38722415245370989e+00    1.60893507125130601e-06    5.21393538997039452e-06    2.24232279641667987e-06
2042-06-28T10:12:52.268917    -3.88047342082770318e+07   -1.33077377235064253e+08   -5.72522027338073999e+07    2.87459146754208064e+01   -6.84186562607931315e+00   -3.22272627706016124e+00    1.52664340051572894e-06    5.23522990457239303e-06    2.25228794922519454e-06
2042-06-29T06:32:48.830698    -3.66966161706811488e+07   -1.33564135488056913e+08   -5.74820530445657820e+07    2.88546371641205575e+01   -6.45791869116231965e+00   -3.05751612464709410e+00    1.44399851794794261e-06    5.25543431091566618e-06    2.26178442975291260e-06
2042-06-30T02:52:45.392479    -3.45807617261254638e+07   -1.34022736896074712e+08   -5.76997854765507802e+07    2.89572979199567015e+01   -6.07253291631398451e+00   -2.89162808777337021e+00    1.36101732493457542e-06    5.27454347623004210e-06    2.27080986278929613e-06
2042-06-30T23:12:41.954259    -3.24576154487989061e+07   -1.34453079191303283e+08   -5.79053517233874053e+07    2.90538729468878856e+01   -5.68578865251201115e+00   -2.72509673037938915e+00    1.27771679255782540e-06    5.29255242124964437e-06    2.27936193921678267e-06
2042-07-01T19:26:51.975428    -3.03377232670837790e+07   -1.34853229732666641e+08   -5.80978194163848311e+07    2.91439256221975533e+01   -5.29960652216355133e+00   -2.55874945990744962e+00    1.19451065334104528e-06    5.30937940431335367e-06    2.28740151885821220e-06
2042-07-02T15:41:01.996595    -2.82114917927625626e+07   -1.35225203232166946e+08   -5.82781477981626689e+07    2.92279063401104402e+01   -4.91223854064223353e+00   -2.39183372420781382e+00    1.11102214829907793e-06    5.32510769165244333e-06    2.29496806860634837e-06
2042-07-03T11:55:12.017763    -2.60793640897834003e+07   -1.35568916246840507e+08   -5.84462967248150408e+07    2.93057951509742303e+01   -4.52376489681120919e+00   -2.22438405355325663e+00    1.02726832971795369e-06    5.33973322325954764e-06    2.30205967729898199e-06
2042-07-04T08:09:22.038930    -2.39417846482806429e+07   -1.35884291130572587e+08   -5.86022285488106087e+07    2.93775733499644041e+01   -4.13426606918578976e+00   -2.05643511479420216e+00    9.43266320497730794e-07    5.35325211082229131e-06    2.30867450809738071e-06
2042-07-05T04:23:32.060098    -2.17991992789524607e+07   -1.36171256103049695e+08   -5.87459081497544274e+07    2.94432234822377836e+01   -3.74382281268068962e+00   -1.88802170563077132e+00    8.59033314283372319e-07    5.36566065746048358e-06    2.31481080679114304e-06
2042-07-06T00:37:42.081266    -1.96520550140145235e+07   -1.36429745294632047e+08   -5.88773029546818137e+07    2.95027293480746735e+01   -3.35251614405667553e+00   -1.71917874833802475e+00    7.74586575055963857e-07    5.37695537379276539e-06    2.32046690854745548e-06
2042-07-06T20:51:52.102433    -1.75008000131883286e+07   -1.36659698772171795e+08   -5.89963829500705823e+07    2.95560760079715941e+01   -2.96042732633025008e+00   -1.54994128305608925e+00    6.89943436183937088e-07    5.38713299034035995e-06    2.32564124310802721e-06
2042-07-07T17:06:02.123601    -1.53458834732021652e+07   -1.36861062550795704e+08   -5.91031206877548322e+07    2.96032497876451153e+01   -2.56763785241348685e+00   -1.38034446075837680e+00    6.05121298932282266e-07    5.39619046625575825e-06    2.33033233842852598e-06
2042-07-08T13:20:12.144769    -1.31877555392830446e+07   -1.37033788596671849e+08   -5.91974912869237363e+07    2.96442382829074944e+01   -2.17422942825119092e+00   -1.21042353601112862e+00    5.20137630433658664e-07    5.40412499439791775e-06    2.33453882276969826e-06
2042-07-09T09:34:22.165937    -1.10268672171174996e+07   -1.37177834825778812e+08   -5.92794724343888015e+07    2.96790303643746789e+01   -1.78028395572254095e+00   -1.04021385963749480e+00    4.35009961113682879e-07    5.41093400271676736e-06    2.33825942522428480e-06
2042-07-10T05:48:32.187104    -8.86367028375927731e+06   -1.37293165103697419e+08   -5.93490443853027821e+07    2.97076161819672855e+01   -1.38588351557432876e+00   -8.69750871399366021e-01    3.49755881582706433e-07    5.41661515200020737e-06    2.34149297470256478e-06
2042-07-11T02:02:42.208272    -6.69861719596248493e+06   -1.37379749251443356e+08   -5.94061899665138572e+07    2.97299871691651987e+01   -9.91110350652995464e-01   -6.99070092810180288e-01    2.64393038985462016e-07    5.42116632995275707e-06    2.34423839736310755e-06
2042-07-11T22:16:52.229439    -4.53216099441772699e+06   -1.37437563062360138e+08   -5.94508945847382545e+07    2.97461360469763747e+01   -5.96046849702589476e-01   -5.28207120191921398e-01    1.78939132795467607e-07    5.42458564153516348e-06    2.34649471245871936e-06
